[{"OBJECT_ID":"2011-041A","OBJECT_NAME":"ASTRA 1N","NORAD_CAT_ID":"37775","OBJECT_TYPE":"PAYLOAD","PERIOD":"1436.096","INCLINATION":"0.0632","APOGEE":"35798.591","PERIGEE":"35774.583","ECCENTRICITY":"0.0002847","MEAN_MOTION":"1.00271819","TLE_LINE1":"1 37775U 11041A   16238.67879186  .00000093  00000-0  00000+0 0  9999","TLE_LINE2":"2 37775   0.0632 319.0899 0002847 145.3176 133.4869  1.00271819 18472","LAUNCH_DATE":"2011-08-06","LAUNCH_SITE":"FRENCH GUIANA","OWNER":"SOCIÉTÉ EUROPÉENNE DES SATELLITES","ORBIT_TYPE":"Geosynchronous","OPERATIONAL_STATUS":"Operational","satInfo":{"lng":33.59998282099096,"lat":0.5658833392538469,"elevation":-8.022092780014454,"azimuth":281.400017179009,"range":42572.3280709901,"height":35779.64642349757,"velocity":3.074554744402242},"x":198,"y":-298},{"OBJECT_ID":"2011-041B","OBJECT_NAME":"BSAT-3C","NORAD_CAT_ID":"37776","OBJECT_TYPE":"PAYLOAD","PERIOD":"1436.140","INCLINATION":"0.049","APOGEE":"35789.348","PERIGEE":"35785.562","ECCENTRICITY":"4.49e-05","MEAN_MOTION":"1.00268723","TLE_LINE1":"1 37776U 11041B   16238.84771685 -.00000378  00000-0  00000+0 0  9991","TLE_LINE2":"2 37776   0.0490 283.2399 0000449 358.5101 107.9028  1.00268723 18602","LAUNCH_DATE":"2011-08-06","LAUNCH_SITE":"FRENCH GUIANA","OWNER":"JAPAN","ORBIT_TYPE":"Geosynchronous","OPERATIONAL_STATUS":"Backup/Standby","satInfo":{"lng":49.037760772086166,"lat":2.1441918768760373,"elevation":-6.471376293830104,"azimuth":265.9622392279138,"range":42417.20999086664,"height":35798.30330700529,"velocity":3.074333053484853},"x":270,"y":-235},{"OBJECT_ID":"2011-041C","OBJECT_NAME":"ARIANE 5 R/B","NORAD_CAT_ID":"37777","OBJECT_TYPE":"ROCKET BODY","PERIOD":"603.914","INCLINATION":"1.9781","APOGEE":"34304.243","PERIGEE":"273.545","ECCENTRICITY":"0.7189474","MEAN_MOTION":"2.38444408","TLE_LINE1":"1 37777U 11041C   16237.72573300 +.00000770 +00000-0 +33107-3 0  9995","TLE_LINE2":"2 37777 001.9781 065.4421 7189474 299.8757 008.0286 02.38444408043107","LAUNCH_DATE":"2011-08-06","LAUNCH_SITE":"FRENCH GUIANA","OWNER":"FRANCE","ORBIT_TYPE":"Highly Elliptical Orbit","OPERATIONAL_STATUS":"N/A, derelict rocket body","satInfo":{"lng":-11.323815532962804,"lat":-0.16049161360115466,"elevation":-15.262250033980688,"azimuth":326.3238155329627,"range":24399.788053109583,"height":17161.18868902098,"velocity":4.115240332046362},"x":-34,"y":-168},{"OBJECT_ID":"2011-042A","OBJECT_NAME":"PAKSAT 1R","NORAD_CAT_ID":"37779","OBJECT_TYPE":"PAYLOAD","PERIOD":"1436.084","INCLINATION":"0.0249","APOGEE":"35793.045","PERIGEE":"35779.671","ECCENTRICITY":"0.0001586","MEAN_MOTION":"1.00272636","TLE_LINE1":"1 37779U 11042A   16238.94282159 +.00000126 +00000-0 +00000-0 0  9990","TLE_LINE2":"2 37779 000.0249 121.5530 0001586 017.7765 212.6849 01.00272636018558","LAUNCH_DATE":"2011-08-11","LAUNCH_SITE":"Xichang Space Center, China","OWNER":"PAKISTAN","ORBIT_TYPE":"Geosynchronous","OPERATIONAL_STATUS":"Operational","satInfo":{"lng":96.88020016706528,"lat":-2.030839419625499,"elevation":-10.55511741242685,"azimuth":218.11979983293472,"range":42850.182891646575,"height":35773.432895934995,"velocity":3.0750109786008037},"x":355,"y":43},{"OBJECT_ID":"2011-047A","OBJECT_NAME":"CHINASAT 1A","NORAD_CAT_ID":"37804","OBJECT_TYPE":"PAYLOAD","PERIOD":"1436.167","INCLINATION":"0.0641","APOGEE":"35796.758","PERIGEE":"35779.191","ECCENTRICITY":"0.0002083","MEAN_MOTION":"1.00266869","TLE_LINE1":"1 37804U 11047A   16238.70243154 -.00000366 +00000-0 +00000-0 0  9997","TLE_LINE2":"2 37804 000.0641 283.6551 0002083 322.6628 110.7449 01.00266869018156","LAUNCH_DATE":"2011-09-17","LAUNCH_SITE":"Xichang Space Center, China","OWNER":"PEOPLES REPUBLIC OF CHINA","ORBIT_TYPE":"Geosynchronous","OPERATIONAL_STATUS":"Operational","satInfo":{"lng":117.30266846376304,"lat":1.41423526878566,"elevation":-7.185239811716502,"azimuth":197.6973315362369,"range":42509.17724400219,"height":35810.051802564194,"velocity":3.073584885590128},"x":318,"y":164},{"OBJECT_ID":"2011-048A","OBJECT_NAME":"COSMOS 2473","NORAD_CAT_ID":"37806","OBJECT_TYPE":"PAYLOAD","PERIOD":"1436.113","INCLINATION":"0.0431","APOGEE":"35796.242","PERIGEE":"35777.588","ECCENTRICITY":"0.0002212","MEAN_MOTION":"1.00270649","TLE_LINE1":"1 37806U 11048A   16238.11026037 -.00000134 +00000-0 +00000-0 0  9997","TLE_LINE2":"2 37806 000.0431 138.4180 0002212 126.4957 095.0560 01.00270649018126","LAUNCH_DATE":"2011-09-20","LAUNCH_SITE":"TYURATAM MISSILE AND SPACE COMPLEX","OWNER":"COMMONWEALTH OF INDEPENDENT STATES","ORBIT_TYPE":"Geosynchronous","OPERATIONAL_STATUS":"Operational","satInfo":{"lng":-152.13013861705954,"lat":0.4716988914900339,"elevation":-8.115782542493791,"azimuth":107.13013861705954,"range":42574.9257731401,"height":35771.81966279801,"velocity":3.0749604690320305},"x":-167,"y":316},{"OBJECT_ID":"2011-049A","OBJECT_NAME":"SES 2","NORAD_CAT_ID":"37809","OBJECT_TYPE":"PAYLOAD","PERIOD":"1436.108","INCLINATION":"0.0592","APOGEE":"35796.264","PERIGEE":"35777.374","ECCENTRICITY":"0.000224","MEAN_MOTION":"1.00270992","TLE_LINE1":"1 37809U 11049A   16239.28967916 -.00000224  00000-0  00000+0 0  9999","TLE_LINE2":"2 37809   0.0592 290.4419 0002240 216.1588 205.6304  1.00270992 18103","LAUNCH_DATE":"2011-09-21","LAUNCH_SITE":"FRENCH GUIANA","OWNER":"SOCIÉTÉ EUROPÉENNE DES SATELLITES","ORBIT_TYPE":"Geosynchronous","OPERATIONAL_STATUS":"Operational","satInfo":{"lng":-102.30427813800372,"lat":-2.1606384068107882,"elevation":-10.678561150142242,"azimuth":57.3042781380037,"range":42877.71046835786,"height":35786.97271365009,"velocity":3.0749834433494976},"x":-350,"y":76},{"OBJECT_ID":"2011-049B","OBJECT_NAME":"ARABSAT 5C","NORAD_CAT_ID":"37810","OBJECT_TYPE":"PAYLOAD","PERIOD":"1436.079","INCLINATION":"0.0642","APOGEE":"35800.114","PERIGEE":"35772.379","ECCENTRICITY":"0.0003289","MEAN_MOTION":"1.00273033","TLE_LINE1":"1 37810U 11049B   16239.07369164  .00000095  00000-0  00000+0 0  9994","TLE_LINE2":"2 37810   0.0642   9.9373 0003289 146.6946 224.6340  1.00273033 17998","LAUNCH_DATE":"2011-09-21","LAUNCH_SITE":"FRENCH GUIANA","OWNER":"ARAB SATELLITE COMMUNICATIONS ORGANIZATION","ORBIT_TYPE":"Geosynchronous","OPERATIONAL_STATUS":"Operational","satInfo":{"lng":37.5507421848807,"lat":-0.1284735328946019,"elevation":-8.700906210145543,"azimuth":277.4492578151193,"range":42647.442971837794,"height":35778.603502357815,"velocity":3.0745629589033685},"x":218,"y":-284},{"OBJECT_ID":"2011-051A","OBJECT_NAME":"EUTE 7 WEST A (AB 7)","NORAD_CAT_ID":"37816","OBJECT_TYPE":"PAYLOAD","PERIOD":"1436.092","INCLINATION":"0.0803","APOGEE":"35801.106","PERIGEE":"35771.920","ECCENTRICITY":"0.0003461","MEAN_MOTION":"1.00272083","TLE_LINE1":"1 37816U 11051A   16238.09320598 -.00000086  00000-0  00000+0 0  9993","TLE_LINE2":"2 37816   0.0803  48.5749 0003461 126.7068 184.7166  1.00272083 18048","LAUNCH_DATE":"2011-09-24","LAUNCH_SITE":"SEA LAUNCH","OWNER":"EUROPEAN TELECOMMUNICATIONS SATELLITE ORGANIZATION (EUTELSAT)","ORBIT_TYPE":"Geosynchronous","OPERATIONAL_STATUS":"Operational","satInfo":{"lng":70.00481222623725,"lat":-0.8984444191687003,"elevation":-9.440979769307535,"azimuth":244.99518777376275,"range":42786.571948710836,"height":35834.079207138675,"velocity":3.0724576076698944},"x":337,"y":-123},{"OBJECT_ID":"2011-051B","OBJECT_NAME":"BLOCK DM-SL R/B","NORAD_CAT_ID":"37817","OBJECT_TYPE":"ROCKET BODY","PERIOD":"653.525","INCLINATION":"0.7721","APOGEE":"35566.498","PERIGEE":"1569.359","ECCENTRICITY":"0.6814129","MEAN_MOTION":"2.20343236","TLE_LINE1":"1 37817U 11051B   16238.96646324 -.00000245  00000-0  00000+0 0  9995","TLE_LINE2":"2 37817   0.7721  12.4848 6814129 129.5804 303.9531  2.20343236 39597","LAUNCH_DATE":"2011-09-24","LAUNCH_SITE":"SEA LAUNCH","OWNER":"SEA LAUNCH DEMO","ORBIT_TYPE":"Highly Elliptical Orbit","OPERATIONAL_STATUS":"N/A, derelict rocket body","satInfo":{"lng":-16.336529678523345,"lat":-0.406945110069494,"elevation":-10.875391433296013,"azimuth":331.33652967852333,"range":34985.517264391594,"height":27979.90026314593,"velocity":2.6878216067529315},"x":-79,"y":-269},{"OBJECT_ID":"2011-054A","OBJECT_NAME":"QUETZSAT 1","NORAD_CAT_ID":"37826","OBJECT_TYPE":"PAYLOAD","PERIOD":"1436.053","INCLINATION":"0.0628","APOGEE":"35796.240","PERIGEE":"35775.267","ECCENTRICITY":"0.0002487","MEAN_MOTION":"1.00274792","TLE_LINE1":"1 37826U 11054A   16239.27414123 -.00000270  00000-0  00000+0 0  9991","TLE_LINE2":"2 37826   0.0628 291.1711 0002487 227.1172 198.3392  1.00274792 18184","LAUNCH_DATE":"2011-09-29","LAUNCH_SITE":"TYURATAM MISSILE AND SPACE COMPLEX","OWNER":"MEXICO","ORBIT_TYPE":"Geosynchronous","OPERATIONAL_STATUS":"Operational","satInfo":{"lng":-92.95910266196607,"lat":-2.10061549021956,"elevation":-10.619788775971568,"azimuth":47.95910266196605,"range":42873.43528380163,"height":35789.25951193249,"velocity":3.074944435332419},"x":-357,"y":18},{"OBJECT_ID":"2011-056A","OBJECT_NAME":"INTELSAT 18","NORAD_CAT_ID":"37834","OBJECT_TYPE":"PAYLOAD","PERIOD":"1436.119","INCLINATION":"0.0196","APOGEE":"35794.352","PERIGEE":"35779.729","ECCENTRICITY":"0.0001734","MEAN_MOTION":"1.00270201","TLE_LINE1":"1 37834U 11056A   16239.54617060  .00000023  00000-0  00000+0 0  9992","TLE_LINE2":"2 37834   0.0196 128.4242 0001734  40.8872 182.5128  1.00270201 17930","LAUNCH_DATE":"2011-10-05","LAUNCH_SITE":"TYURATAM MISSILE AND SPACE COMPLEX","OWNER":"INTERNATIONAL TELECOMMUNICATIONS SATELLITE ORGANIZATION (INTELSAT)","ORBIT_TYPE":"Geosynchronous","OPERATIONAL_STATUS":"Operational","satInfo":{"lng":22.133177711677522,"lat":-0.6750833732941304,"elevation":-9.235882449854627,"azimuth":292.86682228832245,"range":42699.37237994677,"height":35770.600955832604,"velocity":3.075140728586404},"x":135,"y":-331}]